1 37673U 11024A   13360.65551058  .00000455  00000-0  79787-4 0  9998
2 37673 098.0117 005.3360 0001433 089.9931 046.3411 14.72324805136848
